NORAD_CAT_ID,OBJECT_NAME,OBJECT_TYPE,EPOCH,MEAN_MOTION,ECCENTRICITY,INCLINATION,RA_OF_ASC_NODE,ARG_OF_PERICENTER,MEAN_ANOMALY,BSTAR,MEAN_MOTION_DOT,MEAN_MOTION_DDOT,TLE_LINE0,TLE_LINE1,TLE_LINE2,SEMIMAJOR_AXIS,PERIOD,APOGEE,PERIGEE,DECAYED
50840.0,STARLINK-3295,PAYLOAD,2022-10-26 09:40:07,15.08829954,0.0002288,53.2188,302.0874,30.3799,329.7325,0.00044063,6.73e-05,0.0,0 STARLINK-3295,1 50840U 22001AP  22299.40285960  .00006730  00000-0  44063-3 0  9996,2 50840  53.2188 302.0874 0002288  30.3799 329.7325 15.08829954 45811,6917.911,95.438,541.359,538.193,0.0
50840.0,STARLINK-3295,PAYLOAD,2022-10-26 17:37:03,15.08834455,0.0002549999999999,53.2176,300.5997,43.4302,316.6891,0.00018966,2.731e-05,0.0,0 STARLINK-3295,1 50840U 22001AP  22299.73406531  .00002731  00000-0  18966-3 0  9991,2 50840  53.2176 300.5997 0002550  43.4302 316.6891 15.08834455 44571,6917.897,95.438,541.526,537.998,0.0
50840.0,STARLINK-3295,PAYLOAD,2022-10-27 06:20:08,15.08837166,0.0002427,53.2177,298.2209,41.0671,319.0503,8.045e-05,9.92e-06,0.0,0 STARLINK-3295,1 50840U 22001AP  22300.26398771  .00000992  00000-0  80450-4 0  9993,2 50840  53.2177 298.2209 0002427  41.0671 319.0503 15.08837166 45948,6917.889,95.438,541.433,538.075,0.0
50840.0,STARLINK-3295,PAYLOAD,2022-10-27 09:30:54,15.08838509,0.0002435999999999,53.2185,297.6253,42.8603,317.2579,8.8651e-05,1.123e-05,0.0,0 STARLINK-3295,1 50840U 22001AP  22300.39646667  .00001123  00000-0  88651-4 0  9995,2 50840  53.2185 297.6253 0002436  42.8603 317.2579 15.08838509 44677,6917.885,95.438,541.435,538.065,0.0
50840.0,STARLINK-3295,PAYLOAD,2022-10-27 17:27:50,15.0883981,0.0002444,53.2175,296.1392,41.9132,318.2047,7.9215e-05,9.73e-06,0.0,0 STARLINK-3295,1 50840U 22001AP  22300.72766656  .00000973  00000-0  79215-4 0  9991,2 50840  53.2175 296.1392 0002444  41.9132 318.2047 15.08839810 44723,6917.880999999999,95.438,541.437,538.055,0.0
50840.0,STARLINK-3295,PAYLOAD,2022-10-28 06:10:54,15.08846928,0.0002438,53.2185,293.7621,36.5952,323.5206,3.8649e-05,3.27e-06,0.0,0 STARLINK-3295,1 50840U 22001AP  22301.25757963  .00000327  00000-0  38649-4 0  9990,2 50840  53.2185 293.7621 0002438  36.5952 323.5206 15.08846928 46091,6917.859,95.437,541.411,538.038,0.0
50840.0,STARLINK-3295,PAYLOAD,2022-10-28 09:21:41,15.08846199,0.000241,53.2174,293.1654,38.3757,321.7406,1.8509e-05,6e-08,0.0,0 STARLINK-3295,1 50840U 22001AP  22301.39006018  .00000006  00000-0  18509-4 0  9990,2 50840  53.2174 293.1654 0002410  38.3757 321.7406 15.08846199 44823,6917.861,95.437,541.394,538.059,0.0
50840.0,STARLINK-3295,PAYLOAD,2022-10-29 09:12:28,15.08838788,0.0002408,53.2175,288.7054,42.6001,317.5177,9.0716e-05,1.156e-05,0.0,0 STARLINK-3295,1 50840U 22001AP  22302.38365987  .00001156  00000-0  90716-4 0  9990,2 50840  53.2175 288.7054 0002408  42.6001 317.5177 15.08838788 44974,6917.884,95.438,541.415,538.0830000000002,0.0
50840.0,STARLINK-3295,PAYLOAD,2022-10-30 10:38:38,15.08834241,0.0002671,53.2178,283.9473,37.8033,322.3146,2.0351e-05,3.5e-07,0.0,0 STARLINK-3295,1 50840U 22001AP  22303.44350284  .00000035  00000-0  20351-4 0  9995,2 50840  53.2178 283.9473 0002671  37.8033 322.3146 15.08834241 45131,6917.898,95.438,541.611,537.915,0.0
50840.0,STARLINK-3295,PAYLOAD,2022-10-30 21:46:20,15.08835873,0.000233,53.2184,281.8635,40.6339,319.4827,1.9909e-05,2.8e-07,0.0,0 STARLINK-3295,1 50840U 22001AP  22303.90718206  .00000028  00000-0  19909-4 0  9997,2 50840  53.2184 281.8635 0002330  40.6339 319.4827 15.08835873 45201,6917.893,95.438,541.37,538.146,0.0
50840.0,STARLINK-3295,PAYLOAD,2022-10-31 08:54:02,15.08840791,0.000198,53.2184,279.7844,56.4169,303.7012,-6.1317e-05,-1.264e-05,0.0,0 STARLINK-3295,1 50840U 22001AP  22304.37086150 -.00001264  00000-0 -61317-4 0  9990,2 50840  53.2184 279.7844 0001980  56.4169 303.7012 15.08840791 45279,6917.878000000002,95.438,541.113,538.373,0.0
50840.0,STARLINK-3295,PAYLOAD,2022-10-31 15:15:34,15.08839393,0.0002405,53.2177,278.5948,39.5168,320.5999,8.7415e-05,1.103e-05,0.0,0 STARLINK-3295,1 50840U 22001AP  22304.63582081  .00001103  00000-0  87415-4 0  9990,2 50840  53.2177 278.5948 0002405  39.5168 320.5999 15.08839393 46602,6917.882,95.438,541.411,538.0830000000002,0.0
50840.0,STARLINK-3295,PAYLOAD,2022-11-01 07:09:26,15.08843447,0.000234,53.2182,275.6227,38.9599,321.1561,-1.4347e-05,-5.17e-06,0.0,0 STARLINK-3295,1 50840U 22001AP  22305.29822162 -.00000517  00000-0 -14347-4 0  9994,2 50840  53.2182 275.6227 0002340  38.9599 321.1561 15.08843447 45410,6917.87,95.437,541.354,538.116,0.0
50840.0,STARLINK-3295,PAYLOAD,2022-11-01 15:06:22,15.08830259,0.0002481,53.218,274.1355,38.765,321.3520000000001,8.185e-05,1.014e-05,0.0,0 STARLINK-3295,1 50840U 22001AP  22305.62942979  .00001014  00000-0  81850-4 0  9994,2 50840  53.2180 274.1355 0002481  38.7650 321.3520 15.08830259 45465,6917.91,95.438,541.491,538.059,0.0
50840.0,STARLINK-3295,PAYLOAD,2022-11-02 03:49:26,15.08844763,0.0001983,53.2177,271.7537,34.3111,325.8009,0.00010126,1.324e-05,0.0,0 STARLINK-3295,1 50840U 22001AP  22306.15933985  .00001324  00000-0  10126-3 0  9991,2 50840  53.2177 271.7537 0001983  34.3111 325.8009 15.08844763 46834,6917.866,95.437,541.1030000000002,538.359,0.0
50840.0,STARLINK-3295,PAYLOAD,2022-11-02 10:11:00,15.08833682,0.0001937,53.2166,270.5653,36.1363,323.976,-3.1184e-05,-7.84e-06,0.0,0 STARLINK-3295,1 50840U 22001AP  22306.42430563 -.00000784  00000-0 -31184-4 0  9994,2 50840  53.2166 270.5653 0001937  36.1363 323.9760 15.08833682 45588,6917.9,95.438,541.105,538.425,0.0
50840.0,STARLINK-3295,PAYLOAD,2022-11-02 21:18:42,15.08825513,0.0002118,53.2167,268.4847,38.5534,321.5609,-3.9974e-05,-9.24e-06,0.0,0 STARLINK-3295,1 50840U 22001AP  22306.88799434 -.00000924  00000-0 -39974-4 0  9990,2 50840  53.2167 268.4847 0002118  38.5534 321.5609 15.08825513 45656,6917.925,95.438,541.255,538.3240000000002,0.0
50840.0,STARLINK-3295,PAYLOAD,2022-11-03 06:51:01,15.08836971,0.0002082,53.2178,266.6994,42.5988,317.5165,2.989e-05,1.87e-06,0.0,0 STARLINK-3295,1 50840U 22001AP  22307.28543336  .00000187  00000-0  29890-4 0  9998,2 50840  53.2178 266.6994 0002082  42.5988 317.5165 15.08836971 45718,6917.89,95.438,541.195,538.314,0.0
50840.0,STARLINK-3295,PAYLOAD,2022-11-03 21:09:28,15.08852702,0.0002381,53.2192,264.0239,36.7726,323.3429,0.00016067,2.271e-05,0.0,0 STARLINK-3295,1 50840U 22001AP  22307.88157891  .00002271  00000-0  16067-3 0  9998,2 50840  53.2192 264.0239 0002381  36.7726 323.3429 15.08852702 45803,6917.842,95.437,541.354,538.059,0.0
50840.0,STARLINK-3295,PAYLOAD,2022-11-04 03:31:00,15.08856056,0.0002067,53.2181,262.8331,41.5711,318.5438,0.0002802,4.176e-05,0.0,0 STARLINK-3295,1 50840U 22001AP  22308.14653260  .00004176  00000-0  28020-3 0  9997,2 50840  53.2181 262.8331 0002067  41.5711 318.5438 15.08856056 47139,6917.831,95.437,541.126,538.266,0.0
50840.0,STARLINK-3295,PAYLOAD,2022-11-04 06:41:46,15.088599900000002,0.0002057,53.218,262.2382,42.6082,317.5069,0.00032148,4.835e-05,0.0,0 STARLINK-3295,1 50840U 22001AP  22308.27900968  .00004835  00000-0  32148-3 0  9999,2 50840  53.2180 262.2382 0002057  42.6082 317.5069 15.08859990 45867,6917.819,95.436,541.107,538.261,0.0
50840.0,STARLINK-3295,PAYLOAD,2022-11-04 21:00:15,15.08850538,0.0002114,53.2174,259.5596,62.9255,297.1953,0.0002791,4.158e-05,0.0,0 STARLINK-3295,1 50840U 22001AP  22308.87517956  .00004158  00000-0  27910-3 0  9995,2 50840  53.2174 259.5596 0002114  62.9255 297.1953 15.08850538 45951,6917.848000000001,95.437,541.1759999999998,538.251,0.0
50840.0,STARLINK-3295,PAYLOAD,2022-11-05 03:21:48,15.0884487,0.0001994,53.2168,258.372,36.1503,323.9623,9.0289e-05,1.149e-05,0.0,0 STARLINK-3295,1 50840U 22001AP  22309.14014171  .00001149  00000-0  90289-4 0  9994,2 50840  53.2168 258.3720 0001994  36.1503 323.9623 15.08844870 45992,6917.866,95.437,541.11,538.351,0.0
50840.0,STARLINK-3295,PAYLOAD,2022-11-06 03:12:36,15.08829887,0.0002184,53.2172,253.9115,44.2511,315.8655,-0.00021114,-3.646e-05,0.0,0 STARLINK-3295,1 50840U 22001AP  22310.13375562 -.00003646  00000-0 -21114-3 0  9995,2 50840  53.2172 253.9115 0002184  44.2511 315.8655 15.08829887 47434,6917.911,95.438,541.2869999999998,538.265,0.0
50840.0,STARLINK-3295,PAYLOAD,2022-11-06 07:58:45,15.08833894,0.0002197,53.2175,253.0202,42.9217,317.1946,6.953e-05,8.18e-06,0.0,0 STARLINK-3295,1 50840U 22001AP  22310.33247535  .00000818  00000-0  69530-4 0  9996,2 50840  53.2175 253.0202 0002197  42.9217 317.1946 15.08833894 46178,6917.899,95.438,541.284,538.244,0.0
50840.0,STARLINK-3295,PAYLOAD,2022-11-07 04:38:46,15.08851698,0.0001955,53.2173,249.1553,38.6425,321.4707,0.00059487,9.195e-05,0.0,0 STARLINK-3295,1 50840U 22001AP  22311.19359808  .00009195  00000-0  59487-3 0  9994,2 50840  53.2173 249.1553 0001955  38.6425 321.4707 15.08851698 47597,6917.845,95.437,541.062,538.357,0.0
50840.0,STARLINK-3295,PAYLOAD,2022-11-07 07:49:33,15.08834516,0.0002103,53.2174,248.5601,37.5432,322.5707,0.00035095,5.301e-05,0.0,0 STARLINK-3295,1 50840U 22001AP  22311.32608227  .00005301  00000-0  35095-3 0  9995,2 50840  53.2174 248.5601 0002103  37.5432 322.5707 15.08834516 47612,6917.897,95.438,541.217,538.307,0.0
50840.0,STARLINK-3295,PAYLOAD,2022-11-08 06:04:57,15.08858125,0.0002023,53.2172,244.3975,39.7595,320.3545,0.00086031,0.00013437,0.0,0 STARLINK-3295,1 50840U 22001AP  22312.25343790  .00013437  00000-0  86031-3 0  9994,2 50840  53.2172 244.3975 0002023  39.7595 320.3545 15.08858125 47756,6917.825,95.436,541.089,538.2909999999998,0.0
50840.0,STARLINK-3295,PAYLOAD,2022-11-09 04:20:18,15.08876058,0.0001981,53.2173,240.2358,42.4355,317.6790000000001,0.00026962,4.01e-05,0.0,0 STARLINK-3295,1 50840U 22001AP  22313.18077433  .00004010  00000-0  26962-3 0  9999,2 50840  53.2173 240.2358 0001981  42.4355 317.6790 15.08876058 46603,6917.77,95.435,541.006,538.265,0.0
